INMARSAT 4-F2 (SOUTHPA*)
1 28899U 05044A   26123.69141741 -.00000253  00000+0  00000+0 0  9995
2 28899   5.0390  43.7520 0002993   2.3725 207.8502  1.00273315 75073
GSAT-8 (GAGAN/PRN 127)  
1 37605U 11022A   26123.84896977  .00000093  00000+0  00000+0 0  9999
2 37605   2.0173  82.3391 0004135 230.5263 269.5746  1.00273032 52774
LUCH 5A (SDCM/PRN 140)  
1 37951U 11074B   26123.65720659 -.00000041  00000+0  00000+0 0  9996
2 37951   8.6426  74.4495 0002802 317.5175 233.1544  1.00274350 52604
SES-5 (EGNOS/PRN 136)   
1 38652U 12036A   26123.69646676  .00000042  00000+0  00000+0 0  9994
2 38652   0.0589 300.0513 0002098 106.4743  70.7818  1.00272788 44019
GSAT-10 (GAGAN/PRN 128) 
1 38779U 12051B   26123.85451647 -.00000156  00000+0  00000+0 0  9998
2 38779   0.0153 275.9944 0007536 167.7610 168.5640  1.00271001 49650
LUCH 5B (SDCM/PRN 125)  
1 38977U 12061A   26123.12175522 -.00000132  00000+0  00000+0 0  9998
2 38977  10.3893  50.3235 0000979 206.3123 351.9559  1.00272121 49152
ASTRA 5B (EGNOS/PRN 123)
1 39617U 14011B   26123.84272975  .00000145  00000+0  00000+0 0  9999
2 39617   0.0558 318.6413 0002656  72.1816 157.7927  1.00273588 44220
LUCH 5V (SDCM/PRN 141)  
1 39727U 14023A   26123.85676981 -.00000260  00000+0  00000+0 0  9999
2 39727   5.0259  70.1826 0002809 352.2756 202.4839  1.00270169 43915
GSAT-15 (GAGAN/PRN 139) 
1 41028U 15065A   26123.76237455 -.00000250  00000+0  00000+0 0  9991
2 41028   0.0520 255.5301 0004033 155.5603 178.5217  1.00270184 38353
EUTELSAT 117 WEST B (W*)
1 41589U 16038B   26123.52964140 -.00000004  00000+0  00000+0 0  9993
2 41589   0.0153 114.3944 0000173 148.9944  31.7319  1.00269854 36215
SES-15 (WAAS/PRN 133)   
1 42709U 17026A   26123.66985998  .00000068  00000+0  00000+0 0  9994
2 42709   0.0220 327.8701 0000775  70.9525 294.7396  1.00270980  6983
QZS-2 (QZSS/PRN 194)    
1 42738U 17028A   26116.23428738 -.00000266  00000+0  00000+0 0  9998
2 42738  39.5095 243.9120 0740318 270.8047 281.9812  1.00247520  7109
QZS-3 (QZSS/PRN 199)    
1 42917U 17048A   26123.86318316 -.00000340  00000+0  00000+0 0  9999
2 42917   0.0573 158.1044 0001527 248.3137 253.0651  1.00267908 31814
QZS-4 (QZSS/PRN 195)    
1 42965U 17062A   26123.45925015 -.00000333  00000+0  00000+0 0  9995
2 42965  40.1344 344.0533 0745719 271.0007 271.4424  1.00264804 31357
BEIDOU-3 G1 (PRN 130)   
1 43683U 18085A   26123.80754076 -.00000100  00000+0  00000+0 0  9997
2 43683   2.9632  98.5469 0007497 335.9356 237.8758  1.00273398 27619
EUTELSAT 5 WEST B (EGN*)
1 44624U 19067A   26123.69447340 -.00000034  00000+0  00000+0 0  9990
2 44624   0.0744  23.8561 0003405  23.2219  59.5297  1.00272800 23993
BEIDOU-3 G2 (PRN 144)   
1 45344U 20017A   26123.85390979 -.00000133  00000+0  00000+0 0  9990
2 45344   2.7764  46.6512 0002937   0.3878 202.1617  1.00271637 22818
BEIDOU-3 G3 (PRN 143)   
1 45807U 20040A   26123.85988983 -.00000345  00000+0  00000+0 0  9993
2 45807   2.3398  67.3288 0004133 338.1932 236.2724  1.00267520 21625
GALAXY 30 (WAAS/PRN 135)
1 46114U 20056C   26123.67072663  .00000000  00000+0  00000+0 0  9998
2 46114   0.0126 291.6727 0002673 126.0178 280.3482  1.00269869 20846
QZS-1R (QZSS/PRN 196)   
1 49336U 21096A   26123.75530749 -.00000244  00000+0  00000+0 0  9996
2 49336  37.3738  80.2374 0751982 270.9653 278.0206  1.00271331 16567
QZS-6 (QZSS/PRN 200)    
1 62876U 25023A   26123.85598979 -.00000226  00000+0  00000+0 0  9994
2 62876   0.0655  78.7445 0002828 333.7450 207.9395  1.00272637  4510
